IRIDIUM 116             
1 43072U 17083C   23307.54906588  .00000131  00000+0  39802-4 0  9995
2 43072  86.4002   1.8326 0002266  92.6762 267.4693 14.34215487307057
IRIDIUM 130             
1 43073U 17083D   23307.58711994  .00000399  00000+0  13545-3 0  9996
2 43073  86.4013   1.9988 0002081  96.2969 263.8464 14.34219274307008
IRIDIUM 151             
1 43074U 17083E   23307.56175006  .00000446  00000+0  15209-3 0  9995
2 43074  86.4007   1.8634 0002239  88.8859 271.2593 14.34219802307024
IRIDIUM 134             
1 43075U 17083F   23307.59980453  .00000058  00000+0  13734-4 0  9990
2 43075  86.4008   1.8423 0002170  97.6955 262.4488 14.34214298306995
IRIDIUM 137             
1 43076U 17083G   23307.54271679  .00000245  00000+0  80541-4 0  9997
2 43076  86.4008   1.9401 0002539  90.7492 269.3994 14.34214431307057
IRIDIUM 141             
1 43077U 17083H   23307.60614794  .00000417  00000+0  14173-3 0  9992
2 43077  86.4005   1.7983 0002042  89.9135 270.2295 14.34216051307067
IRIDIUM 153             
1 43078U 17083J   23307.34901327  .00000435  00000+0  14833-3 0  9998
2 43078  86.3960 330.3698 0001886  87.6100 272.5312 14.34221383308131
IRIDIUM 131             
1 43079U 17083K   23307.59346064  .00000096  00000+0  27052-4 0  9998
2 43079  86.4010   1.9254 0002009  91.3310 268.8116 14.34215397306991
